OKEAN-3                 
1 21397U 91039A   25302.90173189  .00004169  00000+0  30170-3 0  9997
2 21397  82.5138 103.4639 0015836  59.2191 301.0592 15.03670684845374
COSMOS 2151             
1 21422U 91042A   25302.91666723  .00002536  00000+0  20442-3 0  9999
2 21422  82.4992 209.7186 0013631 135.0504 225.1826 14.99446880843590
SL-14 R/B               
1 21423U 91042B   25302.54900853  .00000539  00000+0  65428-4 0  9999
2 21423  82.4939 343.1669 0015911 315.9259  44.0685 14.81679988833655
ERS-1                   
1 21574U 91050A   25302.94165413  .00000454  00000+0  16033-3 0  9997
2 21574  98.7932 312.8948 0031187 228.9084 130.9409 14.39313930796922
ARIANE 40 R/B           
1 21610U 91050F   25302.88741157  .00000455  00000+0  14912-3 0  9991
2 21610  98.2230 354.8873 0004338 106.7709 253.3958 14.42756568800137
INTERCOSMOS 25          
1 21819U 91086A   25302.71110290  .00001494  00000+0  28797-3 0  9991
2 21819  82.6087  29.1809 1488948  39.2672 330.7386 12.11543818480820
SL-8 R/B                
1 21876U 92008B   25302.92567016  .00000103  00000+0  90004-4 0  9991
2 21876  82.9304   5.0326 0035720 138.4083  34.3018 13.75946151691436
SL-8 R/B                
1 21938U 92020B   25302.90425464  .00000063  00000+0  50357-4 0  9994
2 21938  82.9293 250.8680 0027919 304.8999 109.3156 13.75519522683155
USA 81                  
1 21949U 92023A   25302.67274701  .00000262  00000+0  89912-4 0  9999
2 21949  85.0117 206.9819 0002766  88.7051 271.4459 14.32302583 76033
COSMOS 2219             
1 22219U 92076A   25302.72477553  .00000452  00000+0  26202-3 0  9997
2 22219  71.0592 291.8392 0016802  34.8682 325.3537 14.14055659699860
SL-16 R/B               
1 22220U 92076B   25302.89188986  .00000072  00000+0  59812-4 0  9998
2 22220  70.9976 103.8928 0014953 290.9612 221.1637 14.16828897703309
COSMOS 2221             
1 22236U 92080A   25302.79561245  .00002932  00000+0  26226-3 0  9991
2 22236  82.5061  44.3683 0013161 272.2295  87.7419 14.95494774761226
