CCSDS_OMM_VERS = 2.0
CREATION_DATE  = 
ORIGINATOR     = 

OBJECT_NAME    = OKEAN-3
OBJECT_ID      = 1991-039A
CENTER_NAME    = EARTH
REF_FRAME      = TEME
TIME_SYSTEM    = UTC
MEAN_ELEMENT_THEORY = SGP/SGP4

EPOCH          = 2025-10-29T21:38:29.635296
MEAN_MOTION    = 15.03670684
ECCENTRICITY   = .00158369
INCLINATION    = 82.5138
RA_OF_ASC_NODE = 103.4639
ARG_OF_PERICENTER = 59.2191
MEAN_ANOMALY   = 301.0592

EPHEMERIS_TYPE = 0
CLASSIFICATION_TYPE = U
NORAD_CAT_ID   = 21397
ELEMENT_SET_NO = 999
REV_AT_EPOCH   = 84537
BSTAR          = .30169625E-3
MEAN_MOTION_DOT = .4169E-4
MEAN_MOTION_DDOT = 0

CCSDS_OMM_VERS = 2.0
CREATION_DATE  = 
ORIGINATOR     = 

OBJECT_NAME    = COSMOS 2151
OBJECT_ID      = 1991-042A
CENTER_NAME    = EARTH
REF_FRAME      = TEME
TIME_SYSTEM    = UTC
MEAN_ELEMENT_THEORY = SGP/SGP4

EPOCH          = 2025-10-29T22:00:00.048672
MEAN_MOTION    = 14.99446880
ECCENTRICITY   = .00136316
INCLINATION    = 82.4992
RA_OF_ASC_NODE = 209.7186
ARG_OF_PERICENTER = 135.0504
MEAN_ANOMALY   = 225.1826

EPHEMERIS_TYPE = 0
CLASSIFICATION_TYPE = U
NORAD_CAT_ID   = 21422
ELEMENT_SET_NO = 999
REV_AT_EPOCH   = 84359
BSTAR          = .20442175E-3
MEAN_MOTION_DOT = .2536E-4
MEAN_MOTION_DDOT = 0

CCSDS_OMM_VERS = 2.0
CREATION_DATE  = 
ORIGINATOR     = 

OBJECT_NAME    = SL-14 R/B
OBJECT_ID      = 1991-042B
CENTER_NAME    = EARTH
REF_FRAME      = TEME
TIME_SYSTEM    = UTC
MEAN_ELEMENT_THEORY = SGP/SGP4

EPOCH          = 2025-10-29T13:10:34.336992
MEAN_MOTION    = 14.81679988
ECCENTRICITY   = .00159117
INCLINATION    = 82.4939
RA_OF_ASC_NODE = 343.1669
ARG_OF_PERICENTER = 315.9259
MEAN_ANOMALY   = 44.0685

EPHEMERIS_TYPE = 0
CLASSIFICATION_TYPE = U
NORAD_CAT_ID   = 21423
ELEMENT_SET_NO = 999
REV_AT_EPOCH   = 83365
BSTAR          = .65427816E-4
MEAN_MOTION_DOT = .539E-5
MEAN_MOTION_DDOT = 0

CCSDS_OMM_VERS = 2.0
CREATION_DATE  = 
ORIGINATOR     = 

OBJECT_NAME    = ERS-1
OBJECT_ID      = 1991-050A
CENTER_NAME    = EARTH
REF_FRAME      = TEME
TIME_SYSTEM    = UTC
MEAN_ELEMENT_THEORY = SGP/SGP4

EPOCH          = 2025-10-29T22:35:58.916832
MEAN_MOTION    = 14.39313930
ECCENTRICITY   = .00311876
INCLINATION    = 98.7932
RA_OF_ASC_NODE = 312.8948
ARG_OF_PERICENTER = 228.9084
MEAN_ANOMALY   = 130.9409

EPHEMERIS_TYPE = 0
CLASSIFICATION_TYPE = U
NORAD_CAT_ID   = 21574
ELEMENT_SET_NO = 999
REV_AT_EPOCH   = 79692
BSTAR          = .16032713E-3
MEAN_MOTION_DOT = .454E-5
MEAN_MOTION_DDOT = 0

CCSDS_OMM_VERS = 2.0
CREATION_DATE  = 
ORIGINATOR     = 

OBJECT_NAME    = ARIANE 40 R/B
OBJECT_ID      = 1991-050F
CENTER_NAME    = EARTH
REF_FRAME      = TEME
TIME_SYSTEM    = UTC
MEAN_ELEMENT_THEORY = SGP/SGP4

EPOCH          = 2025-10-29T21:17:52.359648
MEAN_MOTION    = 14.42756568
ECCENTRICITY   = .00043384
INCLINATION    = 98.2230
RA_OF_ASC_NODE = 354.8873
ARG_OF_PERICENTER = 106.7709
MEAN_ANOMALY   = 253.3958

EPHEMERIS_TYPE = 0
CLASSIFICATION_TYPE = U
NORAD_CAT_ID   = 21610
ELEMENT_SET_NO = 999
REV_AT_EPOCH   = 80013
BSTAR          = .14912308E-3
MEAN_MOTION_DOT = .455E-5
MEAN_MOTION_DDOT = 0

CCSDS_OMM_VERS = 2.0
CREATION_DATE  = 
ORIGINATOR     = 

OBJECT_NAME    = INTERCOSMOS 25
OBJECT_ID      = 1991-086A
CENTER_NAME    = EARTH
REF_FRAME      = TEME
TIME_SYSTEM    = UTC
MEAN_ELEMENT_THEORY = SGP/SGP4

EPOCH          = 2025-10-29T17:03:59.290560
MEAN_MOTION    = 12.11543818
ECCENTRICITY   = .14889482
INCLINATION    = 82.6087
RA_OF_ASC_NODE = 29.1809
ARG_OF_PERICENTER = 39.2672
MEAN_ANOMALY   = 330.7386

EPHEMERIS_TYPE = 0
CLASSIFICATION_TYPE = U
NORAD_CAT_ID   = 21819
ELEMENT_SET_NO = 999
REV_AT_EPOCH   = 48082
BSTAR          = .28796961E-3
MEAN_MOTION_DOT = .1494E-4
MEAN_MOTION_DDOT = 0

CCSDS_OMM_VERS = 2.0
CREATION_DATE  = 
ORIGINATOR     = 

OBJECT_NAME    = SL-8 R/B
OBJECT_ID      = 1992-008B
CENTER_NAME    = EARTH
REF_FRAME      = TEME
TIME_SYSTEM    = UTC
MEAN_ELEMENT_THEORY = SGP/SGP4

EPOCH          = 2025-10-29T22:12:57.901824
MEAN_MOTION    = 13.75946151
ECCENTRICITY   = .00357203
INCLINATION    = 82.9304
RA_OF_ASC_NODE = 5.0326
ARG_OF_PERICENTER = 138.4083
MEAN_ANOMALY   = 34.3018

EPHEMERIS_TYPE = 0
CLASSIFICATION_TYPE = U
NORAD_CAT_ID   = 21876
ELEMENT_SET_NO = 999
REV_AT_EPOCH   = 69143
BSTAR          = .9000394E-4
MEAN_MOTION_DOT = .103E-5
MEAN_MOTION_DDOT = 0

CCSDS_OMM_VERS = 2.0
CREATION_DATE  = 
ORIGINATOR     = 

OBJECT_NAME    = SL-8 R/B
OBJECT_ID      = 1992-020B
CENTER_NAME    = EARTH
REF_FRAME      = TEME
TIME_SYSTEM    = UTC
MEAN_ELEMENT_THEORY = SGP/SGP4

EPOCH          = 2025-10-29T21:42:07.600896
MEAN_MOTION    = 13.75519522
ECCENTRICITY   = .00279194
INCLINATION    = 82.9293
RA_OF_ASC_NODE = 250.8680
ARG_OF_PERICENTER = 304.8999
MEAN_ANOMALY   = 109.3156

EPHEMERIS_TYPE = 0
CLASSIFICATION_TYPE = U
NORAD_CAT_ID   = 21938
ELEMENT_SET_NO = 999
REV_AT_EPOCH   = 68315
BSTAR          = .50356779E-4
MEAN_MOTION_DOT = .63E-6
MEAN_MOTION_DDOT = 0

CCSDS_OMM_VERS = 2.0
CREATION_DATE  = 
ORIGINATOR     = 

OBJECT_NAME    = USA 81
OBJECT_ID      = 1992-023A
CENTER_NAME    = EARTH
REF_FRAME      = TEME
TIME_SYSTEM    = UTC
MEAN_ELEMENT_THEORY = SGP/SGP4

EPOCH          = 2025-10-29T16:08:45.341664
MEAN_MOTION    = 14.32302583
ECCENTRICITY   = .00027665
INCLINATION    = 85.0117
RA_OF_ASC_NODE = 206.9819
ARG_OF_PERICENTER = 88.7051
MEAN_ANOMALY   = 271.4459

EPHEMERIS_TYPE = 0
CLASSIFICATION_TYPE = U
NORAD_CAT_ID   = 21949
ELEMENT_SET_NO = 999
REV_AT_EPOCH   = 7603
BSTAR          = .89911629E-4
MEAN_MOTION_DOT = .262E-5
MEAN_MOTION_DDOT = 0

CCSDS_OMM_VERS = 2.0
CREATION_DATE  = 
ORIGINATOR     = 

OBJECT_NAME    = COSMOS 2219
OBJECT_ID      = 1992-076A
CENTER_NAME    = EARTH
REF_FRAME      = TEME
TIME_SYSTEM    = UTC
MEAN_ELEMENT_THEORY = SGP/SGP4

EPOCH          = 2025-10-29T17:23:40.605792
MEAN_MOTION    = 14.14055659
ECCENTRICITY   = .00168026
INCLINATION    = 71.0592
RA_OF_ASC_NODE = 291.8392
ARG_OF_PERICENTER = 34.8682
MEAN_ANOMALY   = 325.3537

EPHEMERIS_TYPE = 0
CLASSIFICATION_TYPE = U
NORAD_CAT_ID   = 22219
ELEMENT_SET_NO = 999
REV_AT_EPOCH   = 69986
BSTAR          = .26201513E-3
MEAN_MOTION_DOT = .452E-5
MEAN_MOTION_DDOT = 0

CCSDS_OMM_VERS = 2.0
CREATION_DATE  = 
ORIGINATOR     = 

OBJECT_NAME    = SL-16 R/B
OBJECT_ID      = 1992-076B
CENTER_NAME    = EARTH
REF_FRAME      = TEME
TIME_SYSTEM    = UTC
MEAN_ELEMENT_THEORY = SGP/SGP4

EPOCH          = 2025-10-29T21:24:19.283904
MEAN_MOTION    = 14.16828897
ECCENTRICITY   = .00149535
INCLINATION    = 70.9976
RA_OF_ASC_NODE = 103.8928
ARG_OF_PERICENTER = 290.9612
MEAN_ANOMALY   = 221.1637

EPHEMERIS_TYPE = 0
CLASSIFICATION_TYPE = U
NORAD_CAT_ID   = 22220
ELEMENT_SET_NO = 999
REV_AT_EPOCH   = 70330
BSTAR          = .59812478E-4
MEAN_MOTION_DOT = .72E-6
MEAN_MOTION_DDOT = 0

CCSDS_OMM_VERS = 2.0
CREATION_DATE  = 
ORIGINATOR     = 

OBJECT_NAME    = COSMOS 2221
OBJECT_ID      = 1992-080A
CENTER_NAME    = EARTH
REF_FRAME      = TEME
TIME_SYSTEM    = UTC
MEAN_ELEMENT_THEORY = SGP/SGP4

EPOCH          = 2025-10-29T19:05:40.915680
MEAN_MOTION    = 14.95494774
ECCENTRICITY   = .00131615
INCLINATION    = 82.5061
RA_OF_ASC_NODE = 44.3683
ARG_OF_PERICENTER = 272.2295
MEAN_ANOMALY   = 87.7419

EPHEMERIS_TYPE = 0
CLASSIFICATION_TYPE = U
NORAD_CAT_ID   = 22236
ELEMENT_SET_NO = 999
REV_AT_EPOCH   = 76122
BSTAR          = .26226304E-3
MEAN_MOTION_DOT = .2932E-4
MEAN_MOTION_DDOT = 0

